CHINASAT 2A (ZX 2A)     
1 38352U 12028A   22151.74910331 -.00000284  00000+0  00000+0 0  9996
2 38352   0.0256 263.4116 0003171 127.8055 225.9095  1.00275239 36829
YAOGAN 15               
1 38354U 12029A   22153.04166134 -.00000027  00000+0  48372-4 0  9992
2 38354 100.6802 309.3306 0025631  31.6980 328.5669 13.18276171480930
INTELSAT 19 (IS-19)     
1 38356U 12030A   22151.78730050 -.00000047  00000+0  00000+0 0  9992
2 38356   0.0170 325.3111 0003044 100.1954 273.1878  1.00273253 35627
NUSTAR                  
1 38358U 12031A   22152.98216407  .00001845  00000+0  11607-3 0  9998
2 38358   6.0261 116.2946 0010871 116.7956 243.3286 14.89327856542647
ECHOSTAR 17             
1 38551U 12035A   22149.62549351 -.00000067  00000+0  00000+0 0  9998
2 38551   0.0206 329.3220 0001974  89.4244 306.4456  1.00265505 36220
METEOSAT-10 (MSG-3)     
1 38552U 12035B   22151.21459382  .00000069  00000+0  00000+0 0  9992
2 38552   1.4987  40.1092 0000246 336.0130 319.2213  1.00266045 36406
SES-5                   
1 38652U 12036A   22151.78780927  .00000043  00000+0  00000+0 0  9990
2 38652   0.0554 296.0943 0001788 134.2815 107.4735  1.00269973 36251
KANOPUS-V 1             
1 38707U 12039A   22153.06476318  .00005527  00000+0  24561-3 0  9997
2 38707  97.4704  75.2526 0001988  93.1325   2.8674 15.21934185547051
BKA 2                   
1 38708U 12039B   22153.04699193  .00006511  00000+0  28689-3 0  9993
2 38708  97.3350  53.3519 0002450  87.6979  20.0838 15.22144543547062
EXACTVIEW-1 (ADS-1B)    
1 38709U 12039C   22153.16996113  .00000039  00000+0  37398-4 0  9996
2 38709  99.0095 219.2742 0012075 101.9059 258.3473 14.24101861512567
TET-1                   
1 38710U 12039D   22153.17851990  .00031993  00000+0  27293-3 0  9997
2 38710  97.5096 232.7129 0002350 140.8074 219.3358 15.69474773555017
MKA-PN 1                
1 38711U 12039E   22153.14424410  .00000068  00000+0  49710-4 0  9996
2 38711  99.0064 218.6948 0012704 102.1300 258.1302 14.24395118512646
TIANLIAN 1-03           
1 38730U 12040A   22152.16987775  .00000135  00000+0  00000+0 0  9997
2 38730   1.9766  91.5919 0008875 340.6981 258.9414  1.00277100 36173
COSMOS 2481             
1 38733U 12041A   22152.81933171  .00000007  00000+0 -18173-4 0  9998
2 38733  82.4725 275.6190 0019426  54.8661 305.4256 12.42390082446501
GONETS-M 3              
1 38734U 12041B   22153.16862577  .00000001  00000+0 -65095-4 0  9998
2 38734  82.4741 269.2095 0017178  56.0730 304.1980 12.44827815447081
GONETS-M 4              
1 38736U 12041D   22152.82795081  .00000024  00000+0  10123-3 0  9992
2 38736  82.4779 273.1621 0025167  40.8730 319.4241 12.43831609446837
INTELSAT 20 (IS-20)     
1 38740U 12043A   22151.79146493 -.00000015  00000+0  00000+0 0  9991
2 38740   0.0052 100.4982 0001179  90.5502  51.6432  1.00271313 35933
HYLAS 2                 
1 38741U 12043B   22151.67108248  .00000164  00000+0  00000+0 0  9999
2 38741   0.0178  51.2147 0001575   1.9208 108.6462  1.00274275 35956
EXPRESS-MD2             
1 38745U 12044B   22152.13032193  .00021191  34123-5  52390-3 0  9996
2 38745  49.8684  52.5403 2115621 172.3293 191.6146 11.23136384386694
INTELSAT 21 (IS-21)     
1 38749U 12045A   22152.42431228 -.00000275  00000+0  00000+0 0  9994
2 38749   0.0163   0.5914 0001814  68.3766 275.6727  1.00271213 35722
SPOT 6                  
1 38755U 12047A   22153.16566662  .00000302  00000+0  74680-4 0  9996
2 38755  98.1559 220.4416 0001214  99.6966 260.4376 14.58582394517920
AEROCUBE 4.5A           
1 38767U 12048K   22152.72902526  .00002457  00000+0  17884-3 0  9999
2 38767  64.6635 160.2236 0176583 266.8716  91.2180 14.94752238148435
AEROCUBE 4.5B           
1 38768U 12048L   22152.86059578  .00003520  00000+0  22822-3 0  9995
2 38768  64.6655 114.7263 0164131 262.1970  96.0485 14.99447014148810
METOP-B                 
1 38771U 12049A   22153.13975663  .00000059  00000+0  46879-4 0  9996
2 38771  98.6963 213.1183 0001992  98.7119 315.6564 14.21486151503555
BEIDOU 15               
1 38775U 12050B   22152.92217390  .00000003  00000+0  00000+0 0  9994
2 38775  55.3926 112.2070 0015571 321.6526 156.4903  1.86231295 66174
ASTRA 2F                
1 38778U 12051A   22151.64879057  .00000159  00000+0  00000+0 0  9992
2 38778   0.0479 219.5532 0000824 332.7983 318.5362  1.00274437 26319
GSAT-10                 
1 38779U 12051B   22152.85973296 -.00000155  00000+0  00000+0 0  9994
2 38779   0.0752 110.2995 0000979  16.9609 155.5484  1.00271152 35316
VRSS-1                  
1 38782U 12052A   22153.10848957  .00000631  00000+0  97731-4 0  9993
2 38782  97.6610 192.3169 0017511  10.9164 349.2419 14.76318380521614
NAVSTAR 67 (USA 239)    
1 38833U 12053A   22152.53195396  .00000046  00000+0  00000+0 0  9997
2 38833  53.5303 204.0023 0123231  46.0309 315.0675  2.00561696 69828
GSAT0103 (GALILEO-FM3)  
1 38857U 12055A   22151.86684020  .00000053  00000+0  00000+0 0  9995
2 38857  55.1342 142.1545 0005499 270.4711  89.4450  1.70473803 59821
GSAT0104 (GALILEO-FM4)  
1 38858U 12055B   22151.83699119  .00000053  00000+0  00000+0 0  9998
2 38858  55.1344 142.1567 0003056 272.4485  87.4957  1.70474083 59938
SJ-9A                   
1 38860U 12056A   22153.05717261  .00000841  00000+0  11692-3 0  9995
2 38860  97.5904 176.1256 0030504  62.9317 297.5002 14.79956403520111
SJ-9B                   
1 38861U 12056B   22153.08329509  .00000684  00000+0  92204-4 0  9997
2 38861  97.5971 186.7569 0019294  56.0360 304.2684 14.82007304520512
INTELSAT 23 (IS-23)     
1 38867U 12057A   22151.56993823 -.00000270  00000+0  00000+0 0  9991
2 38867   0.0479 119.4073 0008057 354.3816 287.8517  1.00463666 35298
BEIDOU 16               
1 38953U 12059A   22152.91471831 -.00000166  00000+0  00000+0 0  9993
2 38953   1.9512  84.4017 0012085 301.4942 277.7497  1.00269036 35100
LUCH 5B                 
1 38977U 12061A   22152.81677269 -.00000129  00000+0  00000+0 0  9993
2 38977   7.2601  62.7415 0005091  35.4379  69.8124  1.00272573 35378
YAMAL 300K              
1 38978U 12061B   22153.02084791  .00000081  00000+0  00000+0 0  9996
2 38978   0.0108 297.5167 0000748 283.6769 219.7337  1.00274944 35071
STAR ONE C3             
1 38991U 12062A   22151.47027251 -.00000239  00000+0  00000+0 0  9993
2 38991   0.0176 348.1707 0002209  94.8893 260.1914  1.00272118 34945
EUTELSAT 21B            
1 38992U 12062B   22151.72210122  .00000140  00000+0  00000+0 0  9993
2 38992   0.0680 359.0003 0003142  83.3993  88.3667  1.00274347 35051
HUANJING 1C (HJ-1C)     
1 38997U 12064A   22153.06754105  .00018383  00000+0  30927-3 0  9996
2 38997  97.0820 180.3934 0005476 276.1143 168.5871 15.51763837536127
FENGNIAO 1 (FN-1)       
1 38998U 12064B   22153.07019394  .00007320  00000+0  13841-3 0  9997
2 38998  97.1430 187.6226 0003659 343.1932  16.9198 15.48693688535154
ECHOSTAR 16             
1 39008U 12065A   22152.42124400 -.00000272  00000+0  00000+0 0  9993
2 39008   0.0173 349.6488 0001948  82.7836 267.5956  1.00266277 35000
YAOGAN 16A              
1 39011U 12066A   22152.99556585 -.00000016  00000+0  94954-4 0  9995
2 39011  63.3634 136.9187 0311011  16.3455 344.7330 13.45226968467554
YAOGAN 16B              
1 39012U 12066B   22152.99767538 -.00000025  00000+0  83396-4 0  9996
2 39012  63.3641 137.0515 0310996  16.1251 344.9405 13.45223114467569
YAOGAN 16C              
1 39013U 12066C   22152.99432374  .00000041  00000+0  16642-3 0  9990
2 39013  63.3651 136.4325 0310615  15.8219 345.2248 13.45227839467580
CHINASAT 12 (ZX 12)     
1 39017U 12067A   22152.90074435 -.00000197  00000+0  00000+0 0  9996
2 39017   0.0160 356.3322 0002842  73.8253 231.9566  1.00268610 34707
PLEIADES 1B             
1 39019U 12068A   22153.18493367  .00000297  00000+0  73736-4 0  9990
2 39019  98.1953 228.3439 0001329  82.5755 277.5600 14.58566134505704
EUTELSAT 70B            
1 39020U 12069A   22151.79166001 -.00000035  00000+0  00000+0 0  9990
2 39020   0.0682 340.9025 0003917 187.8761  76.0022  1.00274430 34693
YAMAL 402               
1 39022U 12070A   22152.87313476  .00000095  00000+0  00000+0 0  9999
2 39022   0.0131  70.1820 0003974 356.5686 192.8141  1.00273982 34794
GOKTURK 2               
1 39030U 12073A   22153.08356140  .00000360  00000+0  63654-4 0  9994
2 39030  97.8574  32.6216 0002219  64.5841 295.5598 14.72858220507092
SKYNET 5D               
1 39034U 12075A   22151.27132969  .00000108  00000+0  00000+0 0  9991
2 39034   0.0684   4.3713 0003720  77.9898 316.8322  1.00274861 34345
MEXSAT 3                
1 39035U 12075B   22152.42209584 -.00000017  00000+0  00000+0 0  9998
2 39035   0.0100 326.5912 0002156 108.1517 212.2947  1.00280913 34376
COSMOS 2482             
1 39057U 13001A   22152.72881207  .00000005  00000+0 -36183-4 0  9996
2 39057  82.5011  58.8753 0028358   8.1129 352.0406 12.42923382425362
COSMOS 2483             
1 39058U 13001B   22152.74805609  .00000007  00000+0 -19899-4 0  9998
2 39058  82.5019  55.0521 0017512   4.1361 355.9864 12.43968909425711
COSMOS 2484             
1 39059U 13001C   22152.76906496  .00000008  00000+0 -11287-4 0  9991
2 39059  82.5054  59.8699 0027426  16.7820 343.4161 12.42890336425352
TDRS 11                 
1 39070U 13004A   22152.00769451  .00000090  00000+0  00000+0 0  9998
2 39070   2.9448 345.6127 0007314  69.2812  23.2513  1.00279998 31880
GLOBALSTAR M097         
1 39072U 13005A   22153.09361946 -.00000089  00000+0  81961-4 0  9997
2 39072  52.0066  56.7201 0000850  36.6483 323.4442 12.62263917430576
GLOBALSTAR M093         
1 39073U 13005B   22153.14586744 -.00000098  00000+0  32080-4 0  9997
2 39073  51.9829  51.6406 0000906  33.6236 326.4688 12.62267457430576
GLOBALSTAR M094         
1 39074U 13005C   22152.82945191 -.00000106  00000+0 -11013-4 0  9991
2 39074  51.9970 325.8800 0000837  92.9489 267.1473 12.62267534432020
